{
    "links": {
        "self": "http://www.neowsapp.com/rest/v1/neo/3303215?api_key=iIulBulltgU6a56xZRHN4H3l9WmuAYTsLGpBGhQ2"
    },
    "id": "3303215",
    "neo_reference_id": "3303215",
    "name": "(2005 WF)",
    "designation": "2005 WF",
    "nasa_jpl_url": "http://ssd.jpl.nasa.gov/sbdb.cgi?sstr=3303215",
    "absolute_magnitude_h": 23.7,
    "estimated_diameter": {
        "kilometers": {
            "estimated_diameter_min": 0.0483676488,
            "estimated_diameter_max": 0.1081533507
        },
        "meters": {
            "estimated_diameter_min": 48.3676488219,
            "estimated_diameter_max": 108.1533506775
        },
        "miles": {
            "estimated_diameter_min": 0.0300542543,
            "estimated_diameter_max": 0.0672033557
        },
        "feet": {
            "estimated_diameter_min": 158.6865169607,
            "estimated_diameter_max": 354.8338390368
        }
    },
    "is_potentially_hazardous_asteroid": false,
    "close_approach_data": [
        {
            "close_approach_date": "2005-11-20",
            "close_approach_date_full": "2005-Nov-20 00:42",
            "epoch_date_close_approach": 1132447320000,
            "relative_velocity": {
                "kilometers_per_second": "13.0026577055",
                "kilometers_per_hour": "46809.5677398835",
                "miles_per_hour": "29085.6450214848"
            },
            "miss_distance": {
                "astronomical": "0.0408848875",
                "lunar": "15.9042212375",
                "kilometers": "6116292.085189625",
                "miles": "3800487.670781825"
            },
            "orbiting_body": "Earth"
        },
        {
            "close_approach_date": "2095-12-09",
            "close_approach_date_full": "2095-Dec-09 22:31",
            "epoch_date_close_approach": 3974308260000,
            "relative_velocity": {
                "kilometers_per_second": "16.3098251824",
                "kilometers_per_hour": "58715.3706566486",
                "miles_per_hour": "36483.4479505159"
            },
            "miss_distance": {
                "astronomical": "0.2961123745",
                "lunar": "115.1877136805",
                "kilometers": "44297780.505842315",
                "miles": "27525364.438221347"
            },
            "orbiting_body": "Earth"
        }
    ],
    "orbital_data": {
        "orbit_id": "7",
        "orbit_determination_date": "2017-04-06 09:09:51",
        "first_observation_date": "2005-11-20",
        "last_observation_date": "2005-11-23",
        "data_arc_in_days": 3,
        "observations_used": 74,
        "orbit_uncertainty": "8",
        "minimum_orbit_intersection": ".0408848",
        "jupiter_tisserand_invariant": "3.915",
        "epoch_osculation": "2453695.5",
        "eccentricity": ".4213656687837188",
        "semi_major_axis": "1.777429264840139",
        "inclination": "21.33888704018929",
        "ascending_node_longitude": "58.13687684470408",
        "orbital_period": "865.5395483347957",
        "perihelion_distance": "1.02848159394502",
        "perihelion_argument": "356.7444401026347",
        "aphelion_distance": "2.526376935735258",
        "perihelion_time": "2453692.030928969913",
        "mean_anomaly": "1.442875225325061",
        "mean_motion": ".4159255353410494",
        "equinox": "J2000",
        "orbit_class": {
            "orbit_class_type": "AMO",
            "orbit_class_description": "Near-Earth asteroid orbits similar to that of 1221 Amor",
            "orbit_class_range": "1.017 AU < q (perihelion) < 1.3 AU"
        }
    },
    "is_sentry_object": false
}